{
    "links": {
        "self": "http://www.neowsapp.com/rest/v1/neo/3591614?api_key=iIulBulltgU6a56xZRHN4H3l9WmuAYTsLGpBGhQ2"
    },
    "id": "3591614",
    "neo_reference_id": "3591614",
    "name": "(2011 YK6)",
    "designation": "2011 YK6",
    "nasa_jpl_url": "http://ssd.jpl.nasa.gov/sbdb.cgi?sstr=3591614",
    "absolute_magnitude_h": 23.4,
    "estimated_diameter": {
        "kilometers": {
            "estimated_diameter_min": 0.0555334912,
            "estimated_diameter_max": 0.1241766613
        },
        "meters": {
            "estimated_diameter_min": 55.5334911581,
            "estimated_diameter_max": 124.1766612574
        },
        "miles": {
            "estimated_diameter_min": 0.0345069009,
            "estimated_diameter_max": 0.0771597762
        },
        "feet": {
            "estimated_diameter_min": 182.1964991311,
            "estimated_diameter_max": 407.4037573197
        }
    },
    "is_potentially_hazardous_asteroid": false,
    "close_approach_data": [
        {
            "close_approach_date": "1941-12-19",
            "close_approach_date_full": "1941-Dec-19 10:24",
            "epoch_date_close_approach": -884698560000,
            "relative_velocity": {
                "kilometers_per_second": "16.1810442018",
                "kilometers_per_hour": "58251.7591264804",
                "miles_per_hour": "36195.3777750066"
            },
            "miss_distance": {
                "astronomical": "0.1164995029",
                "lunar": "45.3183066281",
                "kilometers": "17428077.489898823",
                "miles": "10829305.1906688374"
            },
            "orbiting_body": "Earth"
        },
        {
            "close_approach_date": "2011-12-28",
            "close_approach_date_full": "2011-Dec-28 12:13",
            "epoch_date_close_approach": 1325074380000,
            "relative_velocity": {
                "kilometers_per_second": "13.3645154627",
                "kilometers_per_hour": "48112.2556658323",
                "miles_per_hour": "29895.0846385834"
            },
            "miss_distance": {
                "astronomical": "0.0297119243",
                "lunar": "11.5579385527",
                "kilometers": "4444840.588881241",
                "miles": "2761895.8711174858"
            },
            "orbiting_body": "Earth"
        }
    ],
    "orbital_data": {
        "orbit_id": "7",
        "orbit_determination_date": "2019-07-19 05:25:36",
        "first_observation_date": "2011-12-23",
        "last_observation_date": "2011-12-26",
        "data_arc_in_days": 3,
        "observations_used": 67,
        "orbit_uncertainty": "8",
        "minimum_orbit_intersection": ".00168891",
        "jupiter_tisserand_invariant": "3.562",
        "epoch_osculation": "2455920.5",
        "eccentricity": ".5774623922322756",
        "semi_major_axis": "2.045301908151451",
        "inclination": "5.850746409984169",
        "ascending_node_longitude": "278.6207438709645",
        "orbital_period": "1068.40167976538",
        "perihelion_distance": ".8642169754330762",
        "perihelion_argument": "229.0443291636494",
        "aphelion_distance": "3.226386840869826",
        "perihelion_time": "2455959.594648230346",
        "mean_anomaly": "346.8269831192935",
        "mean_motion": ".3369519225007731",
        "equinox": "J2000",
        "orbit_class": {
            "orbit_class_type": "APO",
            "orbit_class_description": "Near-Earth asteroid orbits which cross the Earth’s orbit similar to that of 1862 Apollo",
            "orbit_class_range": "a (semi-major axis) > 1.0 AU; q (perihelion) < 1.017 AU"
        }
    },
    "is_sentry_object": false
}